[{"OBJECT_NAME":"SHIYAN-7 (SY-7)","OBJECT_ID":"2013-037A","EPOCH":"2026-03-09T22:41:23.798976","MEAN_MOTION":14.72151848,"ECCENTRICITY":0.00091905,"INCLINATION":98.0902,"RA_OF_ASC_NODE":72.6774,"ARG_OF_PERICENTER":101.2537,"MEAN_ANOMALY":258.9703,"EPHEMERIS_TYPE":0,"CLASSIFICATION_TYPE":"U","NORAD_CAT_ID":39208,"ELEMENT_SET_NO":999,"REV_AT_EPOCH":67760,"BSTAR":0.00015875824,"MEAN_MOTION_DOT":9.5e-6,"MEAN_MOTION_DDOT":0},{"OBJECT_NAME":"SL-14 R\/B","OBJECT_ID":"1986-006B","EPOCH":"2026-03-09T22:10:50.144736","MEAN_MOTION":14.86815194,"ECCENTRICITY":0.00750516,"INCLINATION":82.5234,"RA_OF_ASC_NODE":259.5165,"ARG_OF_PERICENTER":271.9927,"MEAN_ANOMALY":87.2696,"EPHEMERIS_TYPE":0,"CLASSIFICATION_TYPE":"U","NORAD_CAT_ID":16496,"ELEMENT_SET_NO":999,"REV_AT_EPOCH":14924,"BSTAR":8.3491519e-5,"MEAN_MOTION_DOT":8.08e-6,"MEAN_MOTION_DDOT":0}]
